STARLINK-32288          
1 60943U 24155V   26068.46817730  .00000000  00000+0  12142-4 0  9990
2 60943  53.1616 130.9289 0001179  89.7902 270.3234 15.30190541 86252
TEVEL2-3                
1 63218U 25052J   26068.64540225  .00020365  00000+0  69446-3 0  9991
2 63218  97.3994 324.7775 0004761 105.7353 254.4413 15.30377031 54855
